SALSAT                  
1 46495U 20068K   26131.44372139  .00005006  00000+0  17904-3 0  9994
2 46495  97.8862 132.2890 0011573  75.4801 284.7721 15.29251188309743
ICEYE-X6                
1 46497U 20068M   26131.54308531  .00001310  00000+0  98841-4 0  9996
2 46497  98.0964 123.4722 0006411 202.0146 158.0804 15.04320007307723
NETSAT-4                
1 46504U 20068U   26131.22973328  .00011889  00000+0  27496-3 0  9991
2 46504  97.8621 136.5388 0007676  95.0170 265.1952 15.42631433310079
NETSAT-3                
1 46505U 20068V   26130.94732316  .00011969  00000+0  28840-3 0  9993
2 46505  97.8671 134.4998 0007508 108.3847 251.8215 15.41395029309947
NETSAT-1                
1 46506U 20068W   26131.47962740  .00008038  00000+0  24890-3 0  9993
2 46506  97.8754 129.8267 0006701 125.9205 234.2659 15.33739661309676
NETSAT-2                
1 46507U 20068X   26131.44598998  .00014586  00000+0  31710-3 0  9995
2 46507  97.8636 136.5433 0006172 114.8429 245.3460 15.44431577310068
TIANQI-6                
1 46810U 20076D   26131.50345722  .00002379  00000+0  15765-3 0  9992
2 46810  34.9993 273.5611 0010498 209.5191 150.4927 15.06943340303045
KSM1-C                  
1 46906U 20081B   26131.52912889  .00006410  00000+0  24601-3 0  9999
2 46906  36.8939 285.1479 0002958 266.2324  93.8087 15.26143468303562
KSM1-D                  
1 46907U 20081C   26131.54885288  .00005600  00000+0  22819-3 0  9993
2 46907  36.8969 293.3440 0004967 301.3392  58.6870 15.24214460303505
KSM1-A                  
1 46912U 20081H   26131.51397933  .00005983  00000+0  23507-3 0  9990
2 46912  36.8965 287.3602 0002961 355.2402   4.8319 15.25401063303578
R2                      
1 46913U 20081J   26131.52316139  .00004998  00000+0  19984-3 0  9990
2 46913  36.8978 287.1047 0007715 325.6826  34.3423 15.24908522306384
KSM1-B                  
1 46914U 20081K   26131.54735185  .00004872  00000+0  20023-3 0  9996
2 46914  36.9024 293.8720 0006379 321.8481  38.1815 15.24012900306596
GONETS-M 20             
1 47227U 20091A   26131.54099563  .00000098  00000+0  64007-3 0  9994
2 47227  82.5043 325.2236 0019976 260.5173  99.3649 12.42892949246524
GONETS-M 21             
1 47228U 20091B   26131.51466978  .00000142  00000+0  95715-3 0  9990
2 47228  82.4966 323.9694 0013812 275.7599  84.1906 12.42885006246517
GONETS-M 22             
1 47229U 20091C   26131.56841208  .00000078  00000+0  49499-3 0  9995
2 47229  82.5025 324.8176 0020834 255.4459 104.4310 12.42890980246479
CUBEL                   
1 47448U 21006AM  26131.40199249  .00005417  00000+0  13596-3 0  9990
2 47448  97.2365 182.3538 0005098 315.3760  44.7076 15.40416335294092
ARKTIKA-M 1             
1 47719U 21016A   26129.11511190 -.00000078  00000+0  00000+0 0  9991
2 47719  63.2307  63.2755 7273343 269.7576  14.8669  2.00634688 38002
STARLINK-2342           
1 47883U 21021Z   26131.25743236  .00074865  00000+0  11228-2 0  9996
2 47883  53.1576 328.8014 0003427 198.6841 161.4045 15.54277566286126
GRUS-1B                 
1 47934U 21022C   26131.52794810  .00000159  00000+0  17823-4 0  9992
2 47934  97.5424  15.9243 0017229  82.7212 277.5969 14.98892833280401
UNISAT-7                
1 47945U 21022P   26131.51080325  .00008549  00000+0  21979-3 0  9999
2 47945  97.3919  36.0763 0008608 192.6375 167.4656 15.39488922284212
GLOBAL-9                
1 47971U 21023G   26131.28988428  .00013070  00000+0  27697-3 0  9992
2 47971  44.9806  97.6678 0002229  87.6809 272.4336 15.45123725289233
AII-BRAVO               
1 48270U 21034C   26131.41268603  .00002481  00000+0  18777-3 0  9991
2 48270  97.5658 187.1651 0007053  49.2036 310.9800 15.03192734274099
TYVAK-182A              
1 48271U 21034D   26131.12174277  .00003744  00000+0  26229-3 0  9997
2 48271  97.5738 190.6881 0007257  98.1950 262.0100 15.05804986274256
CSS (TIANHE)            
1 48274U 21035A   26131.30450568  .00014746  00000+0  16669-3 0  9992
2 48274  41.4671 186.3386 0004319 287.3018  72.7348 15.62141131287408
TYVAK-0130              
1 48606U 21041BF  26131.46526112  .00004389  00000+0  17592-3 0  9992
2 48606  52.9932 196.5549 0011094  58.3575 301.8503 15.27053901274773
HAIYANG-2D              
1 48621U 21043A   26131.49444105  .00000118  00000+0  18076-3 0  9999
2 48621  66.0001  36.0522 0011396 273.6391  86.3374 13.83373073251473
TYVAK-0173              
1 48892U 21059P   26131.46281426  .00001131  00000+0  14731-3 0  9998
2 48892  96.0084 216.9501 0010243 145.0930 215.0962 14.81763480262801
