OBJECT_NAME,OBJECT_ID,EPOCH,MEAN_MOTION,ECCENTRICITY,INCLINATION,RA_OF_ASC_NODE,ARG_OF_PERICENTER,MEAN_ANOMALY,EPHEMERIS_TYPE,CLASSIFICATION_TYPE,NORAD_CAT_ID,ELEMENT_SET_NO,REV_AT_EPOCH,BSTAR,MEAN_MOTION_DOT,MEAN_MOTION_DDOT
SALSAT,2020-068K,2026-05-11T10:38:57.528096,15.29251188,.0011573,97.8862,132.2890,75.4801,284.7721,0,U,46495,999,30974,.17904E-3,.5006E-4,0
ICEYE-X6,2020-068M,2026-05-11T13:02:02.570784,15.04320007,.0006411,98.0964,123.4722,202.0146,158.0804,0,U,46497,999,30772,.98841E-4,.131E-4,0
NETSAT-4,2020-068U,2026-05-11T05:30:48.955392,15.42631433,.0007676,97.8621,136.5388,95.0170,265.1952,0,U,46504,999,31007,.27496E-3,.11889E-3,0
NETSAT-3,2020-068V,2026-05-10T22:44:08.721024,15.41395029,.00075083,97.8671,134.4998,108.3847,251.8215,0,U,46505,999,30994,.28840395E-3,.11969E-3,0
NETSAT-1,2020-068W,2026-05-11T11:30:39.807360,15.33739661,.0006701,97.8754,129.8267,125.9205,234.2659,0,U,46506,999,30967,.2489E-3,.8038E-4,0
NETSAT-2,2020-068X,2026-05-11T10:42:13.534272,15.44431577,.0006172,97.8636,136.5433,114.8429,245.3460,0,U,46507,999,31006,.3171E-3,.14586E-3,0
TIANQI-6,2020-076D,2026-05-11T12:04:58.703808,15.06943340,.0010498,34.9993,273.5611,209.5191,150.4927,0,U,46810,999,30304,.15765E-3,.2379E-4,0
KSM1-C,2020-081B,2026-05-11T12:41:56.736096,15.26143468,.0002958,36.8939,285.1479,266.2324,93.8087,0,U,46906,999,30356,.24601E-3,.641E-4,0
KSM1-D,2020-081C,2026-05-11T13:10:20.888832,15.24214460,.0004967,36.8969,293.3440,301.3392,58.6870,0,U,46907,999,30350,.22819E-3,.56E-4,0
KSM1-A,2020-081H,2026-05-11T12:20:07.814112,15.25401063,.0002961,36.8965,287.3602,355.2402,4.8319,0,U,46912,999,30357,.23507E-3,.5983E-4,0
R2,2020-081J,2026-05-11T12:33:21.144096,15.24908522,.0007715,36.8978,287.1047,325.6826,34.3423,0,U,46913,999,30638,.19984E-3,.4998E-4,0
KSM1-B,2020-081K,2026-05-11T13:08:11.199840,15.24012900,.0006379,36.9024,293.8720,321.8481,38.1815,0,U,46914,999,30659,.20023E-3,.4872E-4,0
GONETS-M 20,2020-091A,2026-05-11T12:59:02.022432,12.42892949,.0019976,82.5043,325.2236,260.5173,99.3649,0,U,47227,999,24652,.64007E-3,.98E-6,0
GONETS-M 21,2020-091B,2026-05-11T12:21:07.468992,12.42885006,.0013812,82.4966,323.9694,275.7599,84.1906,0,U,47228,999,24651,.95715E-3,.142E-5,0
GONETS-M 22,2020-091C,2026-05-11T13:38:30.803712,12.42890980,.0020834,82.5025,324.8176,255.4459,104.4310,0,U,47229,999,24647,.49499E-3,.78E-6,0
CUBEL,2021-006AM,2026-05-11T09:38:52.151136,15.40416335,.0005098,97.2365,182.3538,315.3760,44.7076,0,U,47448,999,29409,.13596E-3,.5417E-4,0
ARKTIKA-M 1,2021-016A,2026-05-09T02:45:45.668160,2.00634688,.72733431,63.2307,63.2755,269.7576,14.8669,0,U,47719,999,3800,0,-.78E-6,0
STARLINK-2342,2021-021Z,2026-05-11T06:10:42.155904,15.54277566,.0003427,53.1576,328.8014,198.6841,161.4045,0,U,47883,999,28612,.11228E-2,.74865E-3,0
GRUS-1B,2021-022C,2026-05-11T12:40:14.715840,14.98892833,.0017229,97.5424,15.9243,82.7212,277.5969,0,U,47934,999,28040,.17823E-4,.159E-5,0
UNISAT-7,2021-022P,2026-05-11T12:15:33.400800,15.39488922,.0008608,97.3919,36.0763,192.6375,167.4656,0,U,47945,999,28421,.21979E-3,.8549E-4,0
GLOBAL-9,2021-023G,2026-05-11T06:57:26.001792,15.45123725,.0002229,44.9806,97.6678,87.6809,272.4336,0,U,47971,999,28923,.27697E-3,.1307E-3,0
AII-BRAVO,2021-034C,2026-05-11T09:54:16.072992,15.03192734,.0007053,97.5658,187.1651,49.2036,310.9800,0,U,48270,999,27409,.18777E-3,.2481E-4,0
TYVAK-182A,2021-034D,2026-05-11T02:55:18.575328,15.05804986,.0007257,97.5738,190.6881,98.1950,262.0100,0,U,48271,999,27425,.26229E-3,.3744E-4,0
CSS (TIANHE),2021-035A,2026-05-11T07:18:29.290752,15.62141131,.0004319,41.4671,186.3386,287.3018,72.7348,0,U,48274,999,28740,.16669E-3,.14746E-3,0
TYVAK-0130,2021-041BF,2026-05-11T11:09:58.560768,15.27053901,.0011094,52.9932,196.5549,58.3575,301.8503,0,U,48606,999,27477,.17592E-3,.4389E-4,0
HAIYANG-2D,2021-043A,2026-05-11T11:51:59.706720,13.83373073,.0011396,66.0001,36.0522,273.6391,86.3374,0,U,48621,999,25147,.18076E-3,.118E-5,0
TYVAK-0173,2021-059P,2026-05-11T11:06:27.152064,14.81763480,.0010243,96.0084,216.9501,145.0930,215.0962,0,U,48892,999,26280,.14731E-3,.1131E-4,0
